line1,line2,classification,launch_year,launch_number,launch_piece,epoch_year,epoch_day,mean_motion_dot,mean_motion_ddot,bstar,ephemeris_type,element_number,satellite_number,inclination,ra_of_asc_node,eccentricity,arg_of_perigee,mean_anomaly,mean_motion,rev_at_epoch,datetime,x,y,z,cartesian_cords,NORAD_CAT_ID,OBJECT_TYPE,SATNAME,SITE,Operator/Owner,Users,Purpose,anom_inclination,anom_ra_of_asc_node,anom_eccentricity,anom_arg_of_perigee,anom_mean_anomaly,anom_mean_motion,anom_count
1 00746U 64006A   22034.58330852  .00001179  00000-0  34043-3 0  9993,2 00746  60.8387 177.1096 3027236 179.5868 180.8683  9.04181797922574,U,64,006,A,22,34.58330852,1.179e-05,0.0,0.0,0,999,746,60.8387,177.1096,0.3027236,179.5868,180.8683,9.04181797,92257,2022-02-03 13:59:57.856128,-12660.733726562137,701.966766016208,26.850015062173348,[-12660.73372656    701.96676602     26.85001506],746,PAYLOAD,ELEKTRON 1,TTMTR,0,0,0,0.0,0.0,0.0,0.0,0.0,0.0,0.0
1   746U 64006A   22034.47272677  .00001169  00000-0  33771-3 0  9997,2   746  60.8387 177.2578 3027241 179.5583 180.9190  9.04181545922542,U,64,006,A,22,34.47272677,1.169e-05,0.0,0.0,0,999,746,60.8387,177.2578,0.3027241,179.5583,180.919,9.04181545,92254,2022-02-03 11:20:43.592928,-12662.490706402701,669.2174611151288,26.849270725287106,[-12662.4907064     669.21746112     26.84927073],746,PAYLOAD,ELEKTRON 1,TTMTR,0,0,0,0.0,0.0,0.0,0.0,0.0,0.0,0.0
1 00746U 64006A   22033.69865362  .00000880  00000-0  25844-3 0  9990,2 00746  60.8385 178.2953 3027274 179.3593 181.2735  9.04179186922494,U,64,006,A,22,33.69865362,8.8e-06,0.0,0.0,0,999,746,60.8385,178.2953,0.3027274,179.3593,181.2735,9.04179186,92249,2022-02-02 16:46:03.672768,-12672.384528638368,439.8091370782692,26.890800804475727,[-12672.38452864    439.80913708     26.8908008 ],746,PAYLOAD,ELEKTRON 1,TTMTR,0,0,0,0.0,0.0,0.0,0.0,0.0,0.0,0.0
1 00746U 64006A   22033.58807142  .00000907  00000-0  26583-3 0  9991,2 00746  60.8384 178.4435 3027281 179.3308 181.3241  9.04179138922481,U,64,006,A,22,33.58807142,9.07e-06,0.0,0.0,0,999,746,60.8384,178.4435,0.3027281,179.3308,181.3241,9.04179138,92248,2022-02-02 14:06:49.370688,-12673.452479096495,407.03679021069155,26.87730405106114,[-12673.4524791     407.03679021     26.87730405],746,PAYLOAD,ELEKTRON 1,TTMTR,0,0,0,0.0,0.0,0.0,0.0,0.0,0.0,0.0
1 00746U 64006A   22032.59283142  .00001120  00000-0  32427-3 0  9991,2 00746  60.8381 179.7775 3027305 179.0751 181.7795  9.04178362922391,U,64,006,A,22,32.59283142,1.12e-05,0.0,0.0,0,999,746,60.8381,179.7775,0.3027305,179.0751,181.7795,9.04178362,92239,2022-02-01 14:13:40.634688,-12679.154642605397,111.86224891864902,26.90493888311322,[-12679.15464261    111.86224892     26.90493888],746,PAYLOAD,ELEKTRON 1,TTMTR,0,0,0,0.0,0.0,0.0,0.0,0.0,0.0,0.0
1 00746U 64006A   22032.48224920  .00001075  00000-0  31169-3 0  9999,2 00746  60.8381 179.9257 3027307 179.0466 181.8301  9.04178054922384,U,64,006,A,22,32.4822492,1.075e-05,0.0,0.0,0,999,746,60.8381,179.9257,0.3027307,179.0466,181.8301,9.04178054,92238,2022-02-01 11:34:26.330880,-12679.358541888301,79.0737441205401,26.889996047168246,[-12679.35854189     79.07374412     26.88999605],746,PAYLOAD,ELEKTRON 1,TTMTR,0,0,0,0.0,0.0,0.0,0.0,0.0,0.0,0.0
1   746U 64006A   22032.37166679  .00001148  00000-0  33181-3 0  9990,2   746  60.8380 180.0741 3027305 179.0181 181.8809  9.04178175922350,U,64,006,A,22,32.37166679,1.148e-05,0.0,0.0,0,999,746,60.838,180.0741,0.3027305,179.0181,181.8809,9.04178175,92235,2022-02-01 08:55:12.010656,-12679.468332420573,46.2284148254294,26.896727101880096,[-12679.46833242     46.22841483     26.8967271 ],746,PAYLOAD,ELEKTRON 1,TTMTR,0,0,0,0.0,0.0,0.0,0.0,0.0,0.0,0.0
1 00746U 64006A   22031.70817217  .00001081  00000-0  31347-3 0  9995,2 00746  60.8379 180.9633 3027331 178.8481 182.1836  9.04177022922316,U,64,006,A,22,31.70817217,1.081e-05,0.0,0.0,0,999,746,60.8379,180.9633,0.3027331,178.8481,182.1836,9.04177022,92231,2022-01-31 16:59:46.075488,-12678.372187268049,-150.55168406914012,26.89744571944253,[-12678.37218727   -150.55168407     26.89744572],746,PAYLOAD,ELEKTRON 1,TTMTR,0,0,0,0.0,0.0,0.0,0.0,0.0,0.0,0.0
1 00746U 64006A   22031.37642478  .00001080  00000-0  31314-3 0  9996,2 00746  60.8378 181.4080 3027347 178.7630 182.3351  9.04176521922282,U,64,006,A,22,31.37642478,1.08e-05,0.0,0.0,0,999,746,60.8378,181.408,0.3027347,178.763,182.3351,9.04176521,92228,2022-01-31 09:02:03.100992,-12676.662388883267,-248.94808858558298,26.892369780581372,[-12676.66238888   -248.94808859     26.89236978],746,PAYLOAD,ELEKTRON 1,TTMTR,0,0,0,0.0,0.0,0.0,0.0,0.0,0.0,0.0
1 00746U 64006A   22030.71292931  .00000691  00000-0  20612-3 0  9994,2 00746  60.8377 182.2973 3027370 178.5931 182.6376  9.04174374922227,U,64,006,A,22,30.71292931,6.91e-06,0.0,0.0,0,999,746,60.8377,182.2973,0.302737,178.5931,182.6376,9.04174374,92222,2022-01-30 17:06:37.092384,-12670.91899404179,-445.6621276268272,26.88190983129766,[-12670.91899404   -445.66212763     26.88190983],746,PAYLOAD,ELEKTRON 1,TTMTR,0,0,0,0.0,0.0,0.0,0.0,0.0,0.0,0.0
1 00746U 64006A   22030.49176393  .00000673  00000-0  20117-3 0  9992,2 00746  60.8377 182.5939 3027373 178.5363 182.7387  9.04174089922208,U,64,006,A,22,30.49176393,6.73e-06,0.0,0.0,0,999,746,60.8377,182.5939,0.3027373,178.5363,182.7387,9.04174089,92220,2022-01-30 11:48:08.403552,-12668.305038204926,-511.24412158718883,26.874203997250305,[-12668.3050382    -511.24412159     26.874204  ],746,PAYLOAD,ELEKTRON 1,TTMTR,0,0,0,0.0,0.0,0.0,0.0,0.0,0.0,0.0
1   746U 64006A   22030.16001578  .00000532  00000-0  16243-3 0  9997,2   746  60.8377 183.0385 3027389 178.4514 182.8898  9.04173217922157,U,64,006,A,22,30.16001578,5.32e-06,0.0,0.0,0,999,746,60.8377,183.0385,0.3027389,178.4514,182.8898,9.04173217,92215,2022-01-30 03:50:25.363392,-12663.756976865012,-609.5212068508251,26.859461438057917,[-12663.75697687   -609.52120685     26.85946144],746,PAYLOAD,ELEKTRON 1,TTMTR,0,0,0,0.0,0.0,0.0,0.0,0.0,0.0,0.0
1 00746U 64006A   22029.71768427  .00000522  00000-0  15978-3 0  9992,2 00746  60.8377 183.6314 3027403 178.3381 183.0915  9.04172754922139,U,64,006,A,22,29.71768427,5.22e-06,0.0,0.0,0,999,746,60.8377,183.6314,0.3027403,178.3381,183.0915,9.04172754,92213,2022-01-29 17:13:27.920928,-12656.47271058,-740.5184742872781,26.844156523588108,[-12656.47271058   -740.51847429     26.84415652],746,PAYLOAD,ELEKTRON 1,TTMTR,0,0,0,0.0,0.0,0.0,0.0,0.0,0.0,0.0
1 00746U 64006A   22029.38593562  .00000490  00000-0  15092-3 0  9992,2 00746  60.8377 184.0762 3027414 178.2530 183.2430  9.04172315922102,U,64,006,A,22,29.38593562,4.9e-06,0.0,0.0,0,999,746,60.8377,184.0762,0.3027414,178.253,183.243,9.04172315,92210,2022-01-29 09:15:44.837568,-12650.10524742814,-838.738304590733,26.831621297619407,[-12650.10524743   -838.73830459     26.8316213 ],746,PAYLOAD,ELEKTRON 1,TTMTR,0,0,0,0.0,0.0,0.0,0.0,0.0,0.0,0.0
1 00746U 64006A   22028.72243833  .00000292  00000-0  96540-4 0  9990,2 00746  60.8377 184.9655 3027434 178.0829 183.5458  9.04170813922040,U,64,006,A,22,28.72243833,2.92e-06,0.0,0.0,0,999,746,60.8377,184.9655,0.3027434,178.0829,183.5458,9.04170813,92204,2022-01-28 17:20:18.671712,-12635.057560632116,-1034.9403794894129,26.80146020909479,[-12635.05756063  -1034.94037949     26.80146021],746,PAYLOAD,ELEKTRON 1,TTMTR,0,0,0,0.0,0.0,0.0,0.0,0.0,0.0,0.0
1 00746U 64006A   22028.39068923  .00000360  00000-0  11540-3 0  9990,2 00746  60.8378 185.4103 3027445 177.9977 183.6974  9.04170687922019,U,64,006,A,22,28.39068923,3.6e-06,0.0,0.0,0,999,746,60.8378,185.4103,0.3027445,177.9977,183.6974,9.04170687,92201,2022-01-28 09:22:35.549472,-12626.36643742172,-1132.9724376436338,26.77775296273705,[-12626.36643742  -1132.97243764     26.77775296],746,PAYLOAD,ELEKTRON 1,TTMTR,0,0,0,0.0,0.0,0.0,0.0,0.0,0.0,0.0
1   746U 64006A   22027.72719068  .00000304  00000-0  99871-4 0  9991,2   746  60.8380 186.2996 3027470 177.8275 184.0003  9.04169788921937,U,64,006,A,22,27.72719068,3.04e-06,0.0,0.0,0,999,746,60.838,186.2996,0.302747,177.8275,184.0003,9.04169788,92193,2022-01-27 17:27:09.274752,-12606.68283334574,-1328.74845766217,26.73370067598837,[-12606.68283335  -1328.74845766     26.73370068],746,PAYLOAD,ELEKTRON 1,TTMTR,0,0,0,0.0,0.0,0.0,0.0,0.0,0.0,0.0
1 00746U 64006A   22027.50602434  .00000329  00000-0  10664-3 0  9994,2 00746  60.8380 186.5960 3027477 177.7706 184.1015  9.04169682921933,U,64,006,A,22,27.50602434,3.29e-06,0.0,0.0,0,999,746,60.838,186.596,0.3027477,177.7706,184.1015,9.04169682,92193,2022-01-27 12:08:40.502976,-12599.433749573222,-1393.9220726100152,26.711678340795466,[-12599.43374957  -1393.92207261     26.71167834],746,PAYLOAD,ELEKTRON 1,TTMTR,0,0,0,0.0,0.0,0.0,0.0,0.0,0.0,0.0
1 00746U 64006A   22026.84252522  .00000349  00000-0  11222-3 0  9992,2 00746  60.8382 187.4854 3027498 177.6002 184.4048  9.04169050921879,U,64,006,A,22,26.84252522,3.49e-06,0.0,0.0,0,999,746,60.8382,187.4854,0.3027498,177.6002,184.4048,9.0416905,92187,2022-01-26 20:13:14.179008,-12575.629676133325,-1589.254671570674,26.669003424010626,[-12575.62967613  -1589.25467157     26.66900342],746,PAYLOAD,ELEKTRON 1,TTMTR,0,0,0,0.0,0.0,0.0,0.0,0.0,0.0,0.0
1 00746U 64006A   22026.62135863  .00000386  00000-0  12240-3 0  9998,2 00746  60.8382 187.7819 3027508 177.5432 184.5062  9.04169007921858,U,64,006,A,22,26.62135863,3.86e-06,0.0,0.0,0,999,746,60.8382,187.7819,0.3027508,177.5432,184.5062,9.04169007,92185,2022-01-26 14:54:45.385632,-12567.011164698693,-1654.281126072327,26.647830123441345,[-12567.0111647   -1654.28112607     26.64783012],746,PAYLOAD,ELEKTRON 1,TTMTR,0,0,0,0.0,0.0,0.0,0.0,0.0,0.0,0.0
1 00746U 64006A   22025.73669224  .00000342  00000-0  11038-3 0  9998,2 00746  60.8386 188.9677 3027538 177.3155 184.9114  9.04168037921775,U,64,006,A,22,25.73669224,3.42e-06,0.0,0.0,0,999,746,60.8386,188.9677,0.3027538,177.3155,184.9114,9.04168037,92177,2022-01-25 17:40:50.209536,-12529.127393745837,-1913.8618940837011,26.57637659271803,[-12529.12739375  -1913.86189408     26.57637659],746,PAYLOAD,ELEKTRON 1,TTMTR,0,0,0,0.0,0.0,0.0,0.0,0.0,0.0,0.0
